H1 CPF 01  gfz 2022 05 26 12  6462 tandemx   
H2 1003001  6202 36605    2022 05 26 12 59 42 2022 05 31 00 00 42   120 1 1  0 0 0
H9
10 0 59727  56142.000000  0   -2680566.786   -958566.104  -6280159.364
10 0 59727  56262.000000  0   -2017189.013   -399469.202  -6581639.848
10 0 59727  56382.000000  0   -1309132.371    154545.945  -6768311.204
10 0 59727  56502.000000  0    -568847.050    693212.164  -6836963.248
10 0 59727  56622.000000  0     190495.462   1206756.575  -6786414.893
10 0 59727  56742.000000  0     955230.052   1686072.672  -6617532.236
10 0 59727  56862.000000  0    1711438.166   2122878.274  -6333217.856
10 0 59727  56982.000000  0    2445196.081   2509857.047  -5938366.094
10 0 59727  57102.000000  0    3142827.634   2840780.889  -5439787.216
10 0 59727  57222.000000  0    3791156.108   3110610.955  -4846100.580
10 0 59727  57342.000000  0    4377754.632   3315577.580  -4167598.208
10 0 59727  57462.000000  0    4891189.160   3453235.711  -3416076.454
10 0 59727  57582.000000  0    5321247.424   3522494.127  -2604638.241
10 0 59727  57702.000000  0    5659149.367   3523619.032  -1747469.793
10 0 59727  57822.000000  0    5897734.608   3458209.646   -859593.000
10 0 59727  57942.000000  0    6031620.096   3329145.886     43400.601
10 0 59727  58062.000000  0    6057325.088   3140509.489    945629.271
10 0 59727  58182.000000  0    5973358.578   2897479.846   1831208.462
10 0 59727  58302.000000  0    5780266.090   2606208.318   2684538.980
10 0 59727  58422.000000  0    5480636.249   2273673.102   3490590.882
10 0 59727  58542.000000  0    5079064.464   1907517.914   4235175.573
10 0 59727  58662.000000  0    4582075.715   1515879.898   4905199.356
10 0 59727  58782.000000  0    3998011.993   1107210.652   5488893.373
10 0 59727  58902.000000  0    3336883.795    690095.033   5976020.850
10 0 59727  59022.000000  0    2610188.300    273071.465   6358051.008
10 0 59727  59142.000000  0    1830704.114   -135540.702   6628301.192
10 0 59727  59262.000000  0    1012263.556   -527805.563   6782049.021
10 0 59727  59382.000000  0     169504.144   -896324.097   6816610.912
10 0 59727  59502.000000  0    -682394.135  -1234372.892   6731384.927
10 0 59727  59622.000000  0   -1527981.750  -1536026.838   6527859.851
10 0 59727  59742.000000  0   -2351818.400  -1796262.825   6209589.424
10 0 59727  59862.000000  0   -3138752.875  -2011042.748   5782135.069
10 0 59727  59982.000000  0   -3874204.496  -2177377.332   5252977.262
10 0 59727  60102.000000  0   -4544438.845  -2293368.337   4631389.703
10 0 59727  60222.000000  0   -5136830.505  -2358227.272   3928280.915
10 0 59727  60342.000000  0   -5640107.852  -2372269.712   3156005.552
10 0 59727  60462.000000  0   -6044575.494  -2336886.277   2328149.193
10 0 59727  60582.000000  0   -6342310.439  -2254491.850   1459288.622
10 0 59727  60702.000000  0   -6527325.641  -2128452.315    564728.801
10 0 59727  60822.000000  0   -6595693.566  -1962990.063   -339774.374
10 0 59727  60942.000000  0   -6545630.354  -1763071.420  -1238300.605
10 0 59727  61062.000000  0   -6377535.083  -1534278.973  -2115054.850
10 0 59727  61182.000000  0   -6093984.895  -1282672.522  -2954652.222
10 0 59727  61302.000000  0   -5699686.926  -1014642.279  -3742392.582
10 0 59727  61422.000000  0   -5201389.076   -736757.635  -4464519.446
10 0 59727  61542.000000  0   -4607752.226   -455615.192  -5108458.105
10 0 59727  61662.000000  0   -3929187.272   -177690.412  -5663028.770
10 0 59727  61782.000000  0   -3177661.506     90803.999  -6118631.277
10 0 59727  61902.000000  0   -2366480.329    344050.113  -6467399.012
10 0 59727  62022.000000  0   -1510048.926    576744.013  -6703323.028
10 0 59727  62142.000000  0    -623616.934    784200.901  -6822345.073
10 0 59727  62262.000000  0     276988.407    962445.656  -6822418.552
10 0 59727  62382.000000  0    1175636.623   1108285.680  -6703540.057
10 0 59727  62502.000000  0    2056176.445   1219366.613  -6467752.126
10 0 59727  62622.000000  0    2902720.492   1294210.304  -6119111.919
10 0 59727  62742.000000  0    3699927.662   1332233.470  -5663627.857
10 0 59727  62862.000000  0    4433278.082   1333746.936  -5109166.066
10 0 59727  62982.000000  0    5089339.732   1299935.996  -4465326.961
10 0 59727  63102.000000  0    5656020.569   1232821.822  -3743289.518
10 0 59727  63222.000000  0    6122799.803   1135204.066  -2955626.291
10 0 59727  63342.000000  0    6480934.477   1010585.686  -2116091.580
10 0 59727  63462.000000  0    6723636.476    863081.806  -1239383.822
10 0 59727  63582.000000  0    6846213.033    697313.635   -340886.241
10 0 59727  63702.000000  0    6846166.317    518290.568    563608.026
10 0 59727  63822.000000  0    6723250.695    331283.847   1458179.959
10 0 59727  63942.000000  0    6479485.750    141693.080   2327073.860
10 0 59727  64062.000000  0    6119121.699    -45089.135   3154984.526
10 0 59727  64182.000000  0    5648560.077   -223812.220   3927334.378
10 0 59727  64302.000000  0    5076231.490   -389496.966   4630534.457
10 0 59727  64422.000000  0    4412436.304   -537557.719   5252226.615
10 0 59727  64542.000000  0    3669147.532   -663914.301   5781500.211
10 0 59727  64662.000000  0    2859785.542   -765089.611   6209079.270
10 0 59727  64782.000000  0    1998968.537   -838292.547   6527479.800
10 0 59727  64902.000000  0    1102244.079   -881484.272   6731135.674
10 0 59727  65022.000000  0     185804.188   -893426.761   6816490.850
10 0 59727  65142.000000  0    -733808.142   -873712.255   6782056.262
10 0 59727  65262.000000  0   -1639996.595   -822773.986   6628433.304
10 0 59727  65382.000000  0   -2516409.629   -741877.019   6358303.553
10 0 59727  65502.000000  0   -3347234.265   -633089.855   5976385.507
10 0 59727  65622.000000  0   -4117483.309   -499237.095   5489358.583
10 0 59727  65742.000000  0   -4813270.928   -343834.561   4905752.852
10 0 59727  65862.000000  0   -5422070.230   -171007.366   4235804.653
10 0 59727  65982.000000  0   -5932947.383     14607.297   3491280.574
10 0 59727  66102.000000  0   -6336766.923    207970.884   2685272.985
10 0 59727  66222.000000  0   -6626365.622    403765.702   1831969.775
10 0 59727  66342.000000  0   -6796688.870    596525.204    946400.662
10 0 59727  66462.000000  0   -6844885.788    780768.854     44165.578
10 0 59727  66582.000000  0   -6770359.685    951138.855   -858849.190
10 0 59727  66702.000000  0   -6574771.826   1102534.708  -1746759.955
10 0 59727  66822.000000  0   -6262000.704   1230241.883  -2603971.822
10 0 59727  66942.000000  0   -5838059.107   1330053.054  -3415459.900
10 0 59727  67062.000000  0   -5310965.866   1398376.583  -4167037.163
10 0 59727  67182.000000  0   -4690580.966   1432330.423  -4845601.060
10 0 59727  67302.000000  0   -3988408.626   1429819.833  -5439356.886
10 0 59727  67422.000000  0   -3217373.761   1389597.193  -5938013.785
10 0 59727  67542.000000  0   -2391577.519   1311302.577  -6332952.660
10 0 59727  67662.000000  0   -1526035.901   1195485.294  -6617363.975
10 0 59727  67782.000000  0    -636406.354   1043606.374  -6786353.119
10 0 59727  67902.000000  0     261290.705    858021.235  -6837014.332
10 0 59727  68022.000000  0    1150952.154    641944.175  -6768475.728
10 0 59727  68142.000000  0    2016674.885    399393.765  -6581914.933
10 0 59727  68262.000000  0    2843034.010    135120.244  -6280540.384
10 0 59727  68382.000000  0    3615353.223   -145483.429  -5869542.323
10 0 59727  68502.000000  0    4319962.680   -436487.016  -5356011.472
10 0 59727  68622.000000  0    4944441.661   -731542.187  -4748828.890
10 0 59727  68742.000000  0    5477844.031  -1024014.719  -4058524.204
10 0 59727  68862.000000  0    5910898.805  -1307126.597  -3297102.716
10 0 59727  68982.000000  0    6236182.326  -1574105.650  -2477844.277
10 0 59727  69102.000000  0    6448257.929  -1818339.559  -1615076.004
10 0 59727  69222.000000  0    6543778.523  -2033530.293   -723922.002
10 0 59727  69342.000000  0    6521549.073  -2213844.843    179964.673
10 0 59727  69462.000000  0    6382546.942  -2354059.111   1080683.245
10 0 59727  69582.000000  0    6129898.150  -2449690.053   1962373.643
10 0 59727  69702.000000  0    5768809.650  -2497113.622   2809505.014
10 0 59727  69822.000000  0    5306459.968  -2493664.546   3607157.995
10 0 59727  69942.000000  0    4751849.557  -2437715.257   4341293.530
10 0 59727  70062.000000  0    4115618.597  -2328732.471   4999002.146
10 0 59727  70182.000000  0    3409835.576  -2167311.374   5568732.988
10 0 59727  70302.000000  0    2647758.548  -1955185.245   6040494.861
10 0 59727  70422.000000  0    1843579.201  -1695210.583   6406026.149
10 0 59727  70542.000000  0    1012153.740  -1391329.492   6658933.808
10 0 59727  70662.000000  0     168725.172  -1048509.203   6794799.458
10 0 59727  70782.000000  0    -671357.097   -672659.628   6811251.102
10 0 59727  70902.000000  0   -1492915.592   -270531.232   6708001.168
10 0 59727  71022.000000  0   -2281217.762    150405.941   6486851.209
10 0 59727  71142.000000  0   -3022239.367    582100.400   6151662.888
10 0 59727  71262.000000  0   -3702914.988   1016072.054   5708295.395
10 0 59727  71382.000000  0   -4311372.216   1443577.315   5164509.434
10 0 59727  71502.000000  0   -4837144.936   1855784.078   4529837.249
10 0 59727  71622.000000  0   -5271360.895   2243953.788   3815420.037
10 0 59727  71742.000000  0   -5606899.162   2599625.833   3033814.912
10 0 59727  71862.000000  0   -5838514.409   2914800.553   2198775.130
10 0 59727  71982.000000  0   -5962925.995   3182116.899   1325006.288
10 0 59727  72102.000000  0   -5978868.271   3395020.562    427901.196
10 0 59727  72222.000000  0   -5887098.533   3547916.712   -476739.374
10 0 59727  72342.000000  0   -5690364.790   3636304.028  -1372993.456
10 0 59727  72462.000000  0   -5393334.199   3656887.497  -2245107.440
10 0 59727  72582.000000  0   -5002480.933   3607665.412  -3077781.595
99
